SAR-LUPE 2              
1 31797U 07030A   26169.70226373  .00011943  00000+0  21156-3 0  9996
2 31797  98.1044 274.3228 0003964 154.6255 205.5190 15.50456783 57179
SAPPHIRE                
1 39088U 13009C   26169.69558794  .00000077  00000+0  41935-4 0  9997
2 39088  98.4261 349.1155 0010122 241.6188 118.3977 14.35240953696793
PRAETORIAN SDA_602      
1 65565U 25203A   26169.68637659  .00000048  00000+0  32062-4 0  9991
2 65565  81.3030   9.3798 0005859 179.8446 180.2713 13.84342959 38906
PRAETORIAN SDA_603      
1 65566U 25203B   26169.64124029  .00000105  00000+0  83622-4 0  9992
2 65566  81.3030   9.3394 0009352 183.1450 176.9649 13.83906585 38904
PRAETORIAN SDA_604      
1 65567U 25203C   26169.51716975  .00000050  00000+0  34621-4 0  9990
2 65567  81.3052   9.8684 0005337 187.5686 172.5390 13.83047623 38863
PRAETORIAN SDA_605      
1 65568U 25203D   26169.69910175  .00000034  00000+0  19718-4 0  9990
2 65568  81.3018   9.3619 0008159 178.8713 181.2463 13.83434279 38908
PRAETORIAN SDA_606      
1 65569U 25203E   26168.30750804  .00000053  00000+0  37439-4 0  9990
2 65569  81.3055  10.8712 0005744 180.4388 179.6764 13.83407378 38708
PRAETORIAN SDA_607      
1 65570U 25203F   26169.68876528  .00000217  00000+0  18326-3 0  9991
2 65570  81.3037   9.2547 0008796 183.1875 176.9227 13.84285034 38910
PRAETORIAN SDA_608      
1 65571U 25203G   26169.30515362  .00000053  00000+0  37325-4 0  9996
2 65571  81.3006   9.7723 0005822 187.5638 172.5432 13.83816974 38844
PRAETORIAN SDA_609      
1 65572U 25203H   26169.30974336  .00000143  00000+0  11777-3 0  9999
2 65572  81.3050   9.7503 0006834 181.3784 178.7355 13.84208146 38858
PRAETORIAN SDA_610      
1 65573U 25203J   26169.06797639  .00000038  00000+0  23778-4 0  9990
2 65573  81.3007   9.9498 0006474 186.0221 174.0859 13.83851939 38811
PRAETORIAN SDA_611      
1 65574U 25203K   26169.50308176  .00000280  00000+0  24398-3 0  9991
2 65574  81.3007   9.7130 0005376 190.5984 169.5060 13.83309012 38867
PRAETORIAN SDA_612      
1 65575U 25203L   26169.63553315  .00000187  00000+0  15523-3 0  9999
2 65575  81.3029   9.1741 0009186 183.2282 176.8817 13.85038999 38919
PRAETORIAN SDA_613      
1 65576U 25203M   26169.51034505  .00000043  00000+0  28710-4 0  9996
2 65576  81.2998   9.7050 0005635 180.0483 180.0673 13.82765156 38866
PRAETORIAN SDA_614      
1 65577U 25203N   26168.97470263  .00000016  00000+0  33012-5 0  9993
2 65577  81.3014   9.8650 0007037 181.5884 178.5252 13.84777941 38821
PRAETORIAN SDA_615      
1 65578U 25203P   26169.60222361  .00000177  00000+0  14740-3 0  9992
2 65578  81.3021   9.2476 0009038 181.2942 178.8193 13.84436471 38901
PRAETORIAN SDA_616      
1 65579U 25203Q   26169.64699919  .00000130  00000+0  10762-3 0  9993
2 65579  81.3070   9.7242 0005578 189.3351 170.7702 13.83265369 38889
PRAETORIAN SDA_617      
1 65580U 25203R   26169.52405083  .00000030  00000+0  16859-4 0  9992
2 65580  81.3036   9.6715 0007340 180.3244 179.7908 13.83150136 38879
PRAETORIAN SDA_618      
1 65581U 25203S   26169.27900091  .00000166  00000+0  13735-3 0  9993
2 65581  81.3018   9.4764 0009674 184.9968 175.1094 13.84670108 38869
PRAETORIAN SDA_619      
1 65582U 25203T   26169.60484491  .00000157  00000+0  13148-3 0  9990
2 65582  81.3041   9.4734 0008216 181.5911 178.5221 13.83805897 39522
PRAETORIAN SDA_620      
1 65583U 25203U   26169.63302497  .00000299  00000+0  26057-3 0  9999
2 65583  81.3024   9.4705 0007742 177.2491 182.8709 13.83618808 38892
PRAETORIAN SDA_621      
1 65584U 25203V   26169.67892617  .00000050  00000+0  34006-4 0  9991
2 65584  81.3020   9.3437 0007432 174.5676 185.5562 13.83801426 38900
PRAETORIAN SDA_601      
1 65585U 25203W   26169.50556551  .00000413  00000+0  36625-3 0  9999
2 65585  81.3036   9.8017 0005324 191.5599 168.5435 13.83167657 38864
